KUIPER-00095            
1 65134U 25171C   26009.29639749  .00007002  00000+0  63719-3 0  9998
2 65134  51.8930  50.4524 0004176 294.7641  65.2894 14.96145634 24247
KUIPER-00096            
1 65135U 25171D   26009.31859621  .00001390  00000+0  21140-3 0  9991
2 65135  51.9013  60.6236 0002020  20.3981 339.7061 14.79909668 24106
KUIPER-00097            
1 65136U 25171E   26009.31597762  .00002902  00000+0  40971-3 0  9990
2 65136  51.9015  63.2533 0003057 349.9868  10.1033 14.79923098 24059
KUIPER-00098            
1 65137U 25171F   26009.31320074 -.00000041  00000+0  23830-4 0  9990
2 65137  51.9018  65.6499 0006795 304.5113  55.5207 14.79892011 23372
KUIPER-00099            
1 65138U 25171G   26009.29020186 -.00002192  00000+0 -25898-3 0  9994
2 65138  51.9039  55.7214 0001172 100.2077 259.9018 14.79877109 24164
KUIPER-00100            
1 65139U 25171H   26009.33336806  .00009857  00000+0  13347-2 0  9997
2 65139  51.9013  53.0168 0000525  34.8959   2.0843 14.79467394  4272
KUIPER-00102            
1 65140U 25171J   26008.85128933 -.00003740  00000+0 -46246-3 0  9997
2 65140  51.8994  57.6925 0000876  89.8374 270.2689 14.79883472 24090
KUIPER-00103            
1 65141U 25171K   26008.86622185  .00013710  00000+0  18230-2 0  9994
2 65141  51.8987  75.1153 0005539 297.2005  62.8392 14.79942582 23855
